{"fetched_at":"2026-07-20T18:29:00.674Z","source":"https://celestrak.org/NORAD/elements/gp.php?GROUP=spire&FORMAT=JSON","constellation":"spire","records":[{"OBJECT_NAME":"LEMUR-2-MYRA","OBJECT_ID":"2025-276EC","EPOCH":"2026-07-20T03:18:04.328640","CLASSIFICATION_TYPE":"U","MEAN_MOTION":15.00621723,"ECCENTRICITY":0.00185732,"INCLINATION":97.5221,"RA_OF_ASC_NODE":270.9458,"ARG_OF_PERICENTER":39.122,"MEAN_ANOMALY":321.1343,"EPHEMERIS_TYPE":0,"NORAD_CAT_ID":66787,"ELEMENT_SET_NO":999,"REV_AT_EPOCH":3515,"BSTAR":0.00026939967,"MEAN_MOTION_DOT":0.00003359,"MEAN_MOTION_DDOT":0},{"OBJECT_NAME":"LEMUR-2 FIKRETDENGIZ","OBJECT_ID":"2026-004A","EPOCH":"2026-07-20T00:11:07.688832","CLASSIFICATION_TYPE":"U","MEAN_MOTION":14.88536708,"ECCENTRICITY":0.00098467,"INCLINATION":97.8034,"RA_OF_ASC_NODE":199.068,"ARG_OF_PERICENTER":42.2614,"MEAN_ANOMALY":317.936,"EPHEMERIS_TYPE":0,"NORAD_CAT_ID":67363,"ELEMENT_SET_NO":999,"REV_AT_EPOCH":2816,"BSTAR":0.0002593724,"MEAN_MOTION_DOT":0.00002359,"MEAN_MOTION_DDOT":0},{"OBJECT_NAME":"TWILIGHT-1 OBJECT B","OBJECT_ID":"2026-004B","EPOCH":"2026-07-20T05:58:32.545056","CLASSIFICATION_TYPE":"U","MEAN_MOTION":14.87803482,"ECCENTRICITY":0.0009365,"INCLINATION":97.8078,"RA_OF_ASC_NODE":199.3036,"ARG_OF_PERICENTER":31.2536,"MEAN_ANOMALY":328.9235,"EPHEMERIS_TYPE":0,"NORAD_CAT_ID":67364,"ELEMENT_SET_NO":999,"REV_AT_EPOCH":2820,"BSTAR":0.00010958569,"MEAN_MOTION_DOT":0.00000947,"MEAN_MOTION_DDOT":0},{"OBJECT_NAME":"LEMUR-2-MARIO-SOUSA","OBJECT_ID":"2026-004C","EPOCH":"2026-07-19T23:41:08.600640","CLASSIFICATION_TYPE":"U","MEAN_MOTION":14.88748918,"ECCENTRICITY":0.00094881,"INCLINATION":97.8007,"RA_OF_ASC_NODE":199.0425,"ARG_OF_PERICENTER":43.7275,"MEAN_ANOMALY":316.4692,"EPHEMERIS_TYPE":0,"NORAD_CAT_ID":67365,"ELEMENT_SET_NO":999,"REV_AT_EPOCH":2817,"BSTAR":0.00023305677,"MEAN_MOTION_DOT":0.00002125,"MEAN_MOTION_DDOT":0},{"OBJECT_NAME":"LEMUR-2-SONNENBLUME","OBJECT_ID":"2026-004E","EPOCH":"2026-07-19T23:46:32.460672","CLASSIFICATION_TYPE":"U","MEAN_MOTION":14.88467068,"ECCENTRICITY":0.00091245,"INCLINATION":97.8003,"RA_OF_ASC_NODE":199.0165,"ARG_OF_PERICENTER":44.751,"MEAN_ANOMALY":315.4441,"EPHEMERIS_TYPE":0,"NORAD_CAT_ID":67367,"ELEMENT_SET_NO":999,"REV_AT_EPOCH":2817,"BSTAR":0.00014903589,"MEAN_MOTION_DOT":0.0000133,"MEAN_MOTION_DDOT":0},{"OBJECT_NAME":"LEMUR-2-WOBLER","OBJECT_ID":"2026-004F","EPOCH":"2026-07-19T23:29:58.170336","CLASSIFICATION_TYPE":"U","MEAN_MOTION":14.88716826,"ECCENTRICITY":0.00091357,"INCLINATION":97.8057,"RA_OF_ASC_NODE":199.1613,"ARG_OF_PERICENTER":36.1772,"MEAN_ANOMALY":324.0062,"EPHEMERIS_TYPE":0,"NORAD_CAT_ID":67368,"ELEMENT_SET_NO":999,"REV_AT_EPOCH":2817,"BSTAR":0.00020769632,"MEAN_MOTION_DOT":0.00001886,"MEAN_MOTION_DDOT":0},{"OBJECT_NAME":"LEMUR-2-GRAM-E-SUE","OBJECT_ID":"2026-004H","EPOCH":"2026-07-20T07:23:07.869408","CLASSIFICATION_TYPE":"U","MEAN_MOTION":14.88602931,"ECCENTRICITY":0.00083014,"INCLINATION":97.7991,"RA_OF_ASC_NODE":199.3457,"ARG_OF_PERICENTER":46.9707,"MEAN_ANOMALY":313.2204,"EPHEMERIS_TYPE":0,"NORAD_CAT_ID":67370,"ELEMENT_SET_NO":999,"REV_AT_EPOCH":2822,"BSTAR":0.00014320821,"MEAN_MOTION_DOT":0.0000128,"MEAN_MOTION_DDOT":0},{"OBJECT_NAME":"LEMUR-2-KATIE","OBJECT_ID":"2026-004AA","EPOCH":"2026-07-19T23:46:11.169984","CLASSIFICATION_TYPE":"U","MEAN_MOTION":14.90273384,"ECCENTRICITY":0.00030448,"INCLINATION":97.8049,"RA_OF_ASC_NODE":199.6005,"ARG_OF_PERICENTER":21.7882,"MEAN_ANOMALY":338.3465,"EPHEMERIS_TYPE":0,"NORAD_CAT_ID":67387,"ELEMENT_SET_NO":999,"REV_AT_EPOCH":2819,"BSTAR":0.00024030914,"MEAN_MOTION_DOT":0.00002278,"MEAN_MOTION_DDOT":0},{"OBJECT_NAME":"LEMUR-2-HCS-BAZUS","OBJECT_ID":"2026-004AB","EPOCH":"2026-07-20T06:10:30.941184","CLASSIFICATION_TYPE":"U","MEAN_MOTION":14.90282861,"ECCENTRICITY":0.00025198,"INCLINATION":97.8038,"RA_OF_ASC_NODE":199.8419,"ARG_OF_PERICENTER":22.6097,"MEAN_ANOMALY":337.5231,"EPHEMERIS_TYPE":0,"NORAD_CAT_ID":67388,"ELEMENT_SET_NO":999,"REV_AT_EPOCH":2823,"BSTAR":0.00021400585,"MEAN_MOTION_DOT":0.00002023,"MEAN_MOTION_DDOT":0}]}
