LEMUR-2-MYRA            
1 66787U 25276EC  26201.13755010  .00003359  00000+0  26940-3 0  9992
2 66787  97.5221 270.9458 0018573  39.1220 321.1343 15.00621723 35156
LEMUR-2 FIKRETDENGIZ    
1 67363U 26004A   26201.00772788  .00002359  00000+0  25937-3 0  9994
2 67363  97.8034 199.0680 0009846  42.2614 317.9360 14.88536708 28163
TWILIGHT-1 OBJECT B     
1 67364U 26004B   26201.24898779  .00000947  00000+0  10959-3 0  9999
2 67364  97.8078 199.3036 0009365  31.2536 328.9235 14.87803482 28200
LEMUR-2-MARIO-SOUSA     
1 67365U 26004C   26200.98690510  .00002125  00000+0  23306-3 0  9993
2 67365  97.8007 199.0425 0009488  43.7275 316.4692 14.88748918 28174
LEMUR-2-SONNENBLUME     
1 67367U 26004E   26200.99065348  .00001330  00000+0  14904-3 0  9992
2 67367  97.8003 199.0165 0009124  44.7510 315.4441 14.88467068 28178
LEMUR-2-WOBLER          
1 67368U 26004F   26200.97914549  .00001886  00000+0  20770-3 0  9991
2 67368  97.8057 199.1613 0009135  36.1772 324.0062 14.88716826 28178
LEMUR-2-GRAM-E-SUE      
1 67370U 26004H   26201.30772997  .00001280  00000+0  14321-3 0  9994
2 67370  97.7991 199.3457 0008301  46.9707 313.2204 14.88602931 28221
LEMUR-2-KATIE           
1 67387U 26004AA  26200.99040706  .00002278  00000+0  24031-3 0  9999
2 67387  97.8049 199.6005 0003044  21.7882 338.3465 14.90273384 28192
LEMUR-2-HCS-BAZUS       
1 67388U 26004AB  26201.25730256  .00002023  00000+0  21401-3 0  9992
2 67388  97.8038 199.8419 0002519  22.6097 337.5231 14.90282861 28233
